{
  "norad_id": 64059,
  "name": "TIANQI-17",
  "history": [
    {
      "epoch": "2026-03-28T21:14:00.070656",
      "apogee_km": 904.9302116438494,
      "perigee_km": 888.7317679178032,
      "latitude_deg": 39.015720977479766,
      "longitude_deg": -49.16658815997653,
      "semi_major_axis_km": 7274.9679897808255,
      "eccentricity": 0.0011133,
      "inclination_deg": 44.9818,
      "raan_deg": 18.9952,
      "arg_perigee_deg": 357.5043,
      "mean_anomaly_deg": 2.5732,
      "mean_motion_rev_day": 13.9912376
    },
    {
      "epoch": "2026-03-29T04:05:18.172608",
      "apogee_km": 904.9122195020091,
      "perigee_km": 888.7472434246974,
      "latitude_deg": 16.623646055265425,
      "longitude_deg": -21.746474880259484,
      "semi_major_axis_km": 7274.9667314633525,
      "eccentricity": 0.001111,
      "inclination_deg": 44.9818,
      "raan_deg": 17.7245,
      "arg_perigee_deg": 358.8765,
      "mean_anomaly_deg": 1.2041,
      "mean_motion_rev_day": 13.99124123
    }
  ]
}